H1 CPF 01  gfz 2021 12 19 01  8531 tandemx   
H2 1003001  6202 36605    2021 12 19 00 59 42 2021 12 24 00 00 42   120 1 1  0 0 0
H9
10 0 59569  79182.000000  0    3459105.674  -5952721.885    253947.339
10 0 59569  79302.000000  0    3257425.537  -5958671.830   1153686.171
10 0 59569  79422.000000  0    2999644.149  -5856438.488   2033110.963
10 0 59569  79542.000000  0    2692146.030  -5646866.503   2876734.317
10 0 59569  79662.000000  0    2342161.884  -5332813.481   3669703.262
10 0 59569  79782.000000  0    1957603.602  -4919109.705   4398065.765
10 0 59569  79902.000000  0    1546888.080  -4412478.452   5049019.665
10 0 59569  80022.000000  0    1118755.053  -3821419.269   5611138.138
10 0 59569  80142.000000  0     682081.144  -3156056.413   6074569.009
10 0 59569  80262.000000  0     245695.794  -2427956.895   6431201.179
10 0 59569  80382.000000  0    -181796.060  -1649924.046   6674799.512
10 0 59569  80502.000000  0    -592181.988   -835770.008   6801107.995
10 0 59569  80622.000000  0    -977798.593       -68.942   6807920.726
10 0 59569  80742.000000  0   -1331673.823    842104.404   6695117.923
10 0 59569  80862.000000  0   -1647652.590   1675446.077   6464667.515
10 0 59569  80982.000000  0   -1920504.026   2484700.138   6120593.079
10 0 59569  81102.000000  0   -2146008.826   3254938.194   5668907.826
10 0 59569  81222.000000  0   -2321024.882   3971836.345   5117515.294
10 0 59569  81342.000000  0   -2443531.328   4621945.973   4476078.153
10 0 59569  81462.000000  0   -2512649.137   5192952.969   3755853.987
10 0 59569  81582.000000  0   -2528637.743   5673919.368   2969500.393
10 0 59569  81702.000000  0   -2492867.157   6055501.001   2130852.242
10 0 59569  81822.000000  0   -2407766.732   6330136.900   1254675.908
10 0 59569  81942.000000  0   -2276750.943   6492205.531    356404.052
10 0 59569  82062.000000  0   -2104124.314   6538143.602   -548143.467
10 0 59569  82182.000000  0   -1894968.186   6466524.725  -1443047.358
10 0 59569  82302.000000  0   -1655010.842   6278093.489  -2312581.049
10 0 59569  82422.000000  0   -1390484.525   5975751.319  -3141494.431
10 0 59569  82542.000000  0   -1107975.333   5564502.310  -3915283.091
10 0 59569  82662.000000  0    -814269.462   5051359.474  -4620442.341
10 0 59569  82782.000000  0    -516198.943   4445212.909  -5244698.894
10 0 59569  82902.000000  0    -220490.263   3756665.595  -5777217.872
10 0 59569  83022.000000  0      66381.024   2997838.511  -6208782.417
10 0 59569  83142.000000  0     338325.908   2182149.964  -6531941.805
10 0 59569  83262.000000  0     589765.093   1324076.347  -6741128.203
10 0 59569  83382.000000  0     815738.738    438896.673  -6832743.575
10 0 59569  83502.000000  0    1012000.487   -457575.450  -6805214.639
10 0 59569  83622.000000  0    1175094.457  -1349268.812  -6659016.029
10 0 59569  83742.000000  0    1302414.327  -2220134.687  -6396661.571
10 0 59569  83862.000000  0    1392244.656  -3054427.755  -6022666.829
10 0 59569  83982.000000  0    1443783.445  -3836987.157  -5543481.555
10 0 59569  84102.000000  0    1457144.418  -4553512.522  -4967388.334
10 0 59569  84222.000000  0    1433340.747  -5190826.738  -4304369.849
10 0 59569  84342.000000  0    1374249.116  -5737124.693  -3565947.641
10 0 59569  84462.000000  0    1282553.853  -6182201.777  -2764990.167
10 0 59569  84582.000000  0    1161673.641  -6517655.757  -1915494.048
10 0 59569  84702.000000  0    1015671.691  -6737057.854  -1032341.153
10 0 59569  84822.000000  0     849150.140  -6836087.273   -131035.400
10 0 59569  84942.000000  0     667132.209  -6812624.676    772574.833
10 0 59569  85062.000000  0     474935.016  -6666802.912   1662582.687
10 0 59569  85182.000000  0     278036.036  -6401012.854   2523312.337
10 0 59569  85302.000000  0      81936.656  -6019862.153   3339605.313
10 0 59569  85422.000000  0    -107974.212  -5530087.662   4097094.322
10 0 59569  85542.000000  0    -286552.376  -4940428.082   4782459.172
10 0 59569  85662.000000  0    -449022.923  -4261458.341   5383662.658
10 0 59569  85782.000000  0    -591094.013  -3505390.244   5890160.675
10 0 59569  85902.000000  0    -709058.013  -2685842.651   6293083.999
10 0 59569  86022.000000  0    -799877.556  -1817588.392   6585385.978
10 0 59569  86142.000000  0    -861255.124   -916285.245   6761958.957
10 0 59569  86262.000000  0    -891685.457      1808.020   6819719.548
10 0 59569  86382.000000  0    -890489.637    920125.619   6757659.378
10 0 59570    102.000000  0    -857829.086   1822093.341   6576861.554
10 0 59570    222.000000  0    -794700.032   2691427.126   6280482.786
10 0 59570    342.000000  0    -702909.046   3512427.149   5873701.877
10 0 59570    462.000000  0    -585029.953   4270263.674   5363634.298
10 0 59570    582.000000  0    -444342.355   4951248.674   4759213.624
10 0 59570    702.000000  0    -284753.339   5543091.078   4071041.241
10 0 59570    822.000000  0    -110702.849   6035126.035   3311202.806
10 0 59570    942.000000  0      72943.159   6418517.009   2493061.560
10 0 59570   1062.000000  0     261011.752   6686429.049   1631019.794
10 0 59570   1182.000000  0     448151.845   6834156.767    740258.985
10 0 59570   1302.000000  0     628967.981   6859212.239   -163533.947
10 0 59570   1422.000000  0     798156.381   6761368.710  -1064451.650
10 0 59570   1542.000000  0     950638.274   6542657.716  -1946655.142
10 0 59570   1662.000000  0    1081687.644   6207321.862  -2794659.384
10 0 59570   1782.000000  0    1187051.124   5761724.119  -3593610.383
10 0 59570   1902.000000  0    1263057.135   5214216.149  -4329547.817
10 0 59570   2022.000000  0    1306711.406   4574969.347  -4989647.793
10 0 59570   2142.000000  0    1315776.700   3855773.739  -5562440.578
10 0 59570   2262.000000  0    1288834.939   3069811.396  -6038001.398
10 0 59570   2382.000000  0    1225330.953   2231407.533  -6408112.208
10 0 59570   2502.000000  0    1125597.037   1355766.486  -6666391.134
10 0 59570   2622.000000  0     990858.640    458697.836  -6808392.571
10 0 59570   2742.000000  0     823220.856   -443665.369  -6831675.753
10 0 59570   2862.000000  0     625635.778  -1335151.153  -6735841.159
10 0 59570   2982.000000  0     401851.550  -2199830.412  -6522535.067
10 0 59570   3102.000000  0     156344.251  -3022293.361  -6195425.736
10 0 59570   3222.000000  0    -105768.253  -3787921.019  -5760148.556
10 0 59570   3342.000000  0    -378827.577  -4483143.572  -5224217.730
10 0 59570   3462.000000  0    -656750.161  -5095683.037  -4596908.306
10 0 59570   3582.000000  0    -933155.792  -5614776.666  -3889107.097
10 0 59570   3702.000000  0   -1201506.507  -6031375.683  -3113133.194
10 0 59570   3822.000000  0   -1455252.758  -6338314.402  -2282530.575
10 0 59570   3942.000000  0   -1687984.033  -6530446.436  -1411835.502
10 0 59570   4062.000000  0   -1893579.996  -6604743.327   -516321.174
10 0 59570   4182.000000  0   -2066358.397  -6560351.629    388274.845
10 0 59570   4302.000000  0   -2201216.274  -6398606.384   1286034.381
10 0 59570   4422.000000  0   -2293760.407  -6123000.375   2161147.554
10 0 59570   4542.000000  0   -2340423.361  -5739109.520   2998200.480
10 0 59570   4662.000000  0   -2338561.702  -5254476.145   3782454.750
10 0 59570   4782.000000  0   -2286534.230  -4678453.921   4500112.176
10 0 59570   4902.000000  0   -2183758.860  -4022019.516   5138559.896
10 0 59570   5022.000000  0   -2030747.350  -3297554.763   5686592.706
10 0 59570   5142.000000  0   -1829115.700  -2518603.645   6134606.628
10 0 59570   5262.000000  0   -1581570.471  -1699613.062   6474761.465
10 0 59570   5382.000000  0   -1291872.698   -855661.092   6701112.638
10 0 59570   5502.000000  0    -964780.486     -2176.066   6809708.585
10 0 59570   5622.000000  0    -605971.182    845344.946   6798654.520
10 0 59570   5742.000000  0    -221942.784   1671616.873   6668144.342
10 0 59570   5862.000000  0     180103.752   2461842.139   6420457.477
10 0 59570   5982.000000  0     592399.052   3201975.524   6059921.096
10 0 59570   6102.000000  0    1006753.943   3878974.994   5592839.434
10 0 59570   6222.000000  0    1414720.437   4481035.276   5027389.257
10 0 59570   6342.000000  0    1807762.509   4997799.755   4373482.725
10 0 59570   6462.000000  0    2177433.369   5420545.603   3642598.036
10 0 59570   6582.000000  0    2515556.284   5742338.755   2847582.652
10 0 59570   6702.000000  0    2814403.421   5958158.786   2002427.030
10 0 59570   6822.000000  0    3066869.702   6064983.145   1122013.137
10 0 59570   6942.000000  0    3266635.235   6061830.736    221845.942
10 0 59570   7062.000000  0    3408313.467   5949765.255   -682227.190
10 0 59570   7182.000000  0    3487581.903   5731856.728  -1574304.029
10 0 59570   7302.000000  0    3501291.056   5413103.297  -2438714.792
10 0 59570   7422.000000  0    3447549.668   5000314.867  -3260304.300
10 0 59570   7542.000000  0    3325782.886   4501961.188  -4024701.863
10 0 59570   7662.000000  0    3136763.025   3927990.016  -4718571.983
10 0 59570   7782.000000  0    2882613.112   3289621.389  -5329843.458
10 0 59570   7902.000000  0    2566783.583   2599121.249  -5847912.343
10 0 59570   8022.000000  0    2194003.106   1869560.810  -6263816.109
10 0 59570   8142.000000  0    1770204.506   1114566.940  -6570377.014
10 0 59570   8262.000000  0    1302429.354    348069.056  -6762313.972
10 0 59570   8382.000000  0     798711.245   -415953.603  -6836325.240
10 0 59570   8502.000000  0     267938.394  -1163722.260  -6791138.678
10 0 59570   8622.000000  0    -280299.612  -1881900.379  -6627529.530
10 0 59570   8742.000000  0    -835880.008  -2557824.651  -6348309.485
10 0 59570   8862.000000  0   -1388329.435  -3179725.060  -5958284.550
10 0 59570   8982.000000  0   -1927016.353  -3736928.017  -5464180.259
10 0 59570   9102.000000  0   -2441351.587  -4220040.840  -4874537.609
10 0 59570   9222.000000  0   -2920995.161  -4621115.785  -4199577.520
99
